     3.04           N: GNSS NAV DATA    M: Mixed            RINEX VERSION / TYPE
CONVBIN demo5 b34g                      20221013 160240 UTC PGM / RUN BY / DATE 
log: /home/dominic/Bureau/ubx/2022.06.01_005418.ubx         COMMENT             
format: u-blox UBX                                          COMMENT             
format: u-blox UBX                                          COMMENT             
log: /home/dominic/Bureau/ubx/2022.06.01_005418.ubx         COMMENT             
                                                            END OF HEADER       
E36 2022 06 01 01 30 00 -.381691963412D-03 -.544275735592D-11  .000000000000D+00
      .570000000000D+02 -.155156250000D+03  .259153651933D-08  .129009457401D+01
     -.724568963051D-05  .233519705944D-03  .724568963051D-06  .544061055374D+04
      .264600000000D+06 -.260770320892D-07  .236006359106D+01  .335276126862D-07
      .997796547557D+00  .336750000000D+03  .472814381520D+00 -.562630578679D-08
     -.148934775160D-09  .513000000000D+03  .221200000000D+04  .000000000000D+00
      .312000000000D+01  .000000000000D+00  .605359673500D-08  .698491930962D-08
      .265264000000D+06  .000000000000D+00
E11 2022 06 01 01 30 00  .349612161517D-02 -.119953824651D-09 -.346944695195D-17
      .570000000000D+02 -.151125000000D+03  .263939565571D-08  .161259371619D+01
     -.688619911671D-05  .548068783246D-03  .130198895931D-05  .544061291313D+04
      .264600000000D+06 -.204890966415D-07  .236269418109D+01 -.204890966415D-07
      .994653087705D+00  .326718750000D+03  .905887033945D+00 -.558201822775D-08
     -.118933525487D-09  .513000000000D+03  .221200000000D+04  .000000000000D+00
      .312000000000D+01  .000000000000D+00 -.128056854010D-07 -.142026692629D-07
      .265264000000D+06  .000000000000D+00
E21 2022 06 01 01 30 00 -.737508351449D-03 -.224531504500D-11  .000000000000D+00
      .570000000000D+02  .123906250000D+03  .246510268142D-08 -.120510078179D+01
      .583007931709D-05  .318395905197D-04  .113621354103D-04  .544061888885D+04
      .264600000000D+06 -.931322574615D-07  .274521702177D+00  .111758708954D-06
      .973621586379D+00  .101906250000D+03  .187881610855D+01 -.506699677504D-08
     -.332513850537D-09  .513000000000D+03  .221200000000D+04  .000000000000D+00
      .312000000000D+01  .000000000000D+00  .209547579288D-08  .232830643654D-08
      .265264000000D+06  .000000000000D+00
E27 2022 06 01 01 30 00 -.311746669468D-03 -.872546479513D-11  .000000000000D+00
      .570000000000D+02  .129281250000D+03  .240831460168D-08  .200777871117D+01
      .604800879955D-05  .128819723614D-03  .118333846331D-04  .544061919403D+04
      .264600000000D+06 -.102445483208D-06  .274513865324D+00 -.100582838058D-06
      .973594273698D+00  .954375000000D+02 -.540382317824D+00 -.503628120990D-08
     -.425374861428D-09  .513000000000D+03  .221200000000D+04  .000000000000D+00
      .312000000000D+01  .000000000000D+00  .232830643654D-08  .256113708019D-08
      .265264000000D+06  .000000000000D+00
E01 2022 06 01 01 30 00 -.487457786221D-03 -.729016846890D-11  .000000000000D+00
      .570000000000D+02  .122531250000D+03  .256617832020D-08  .419938787496D+00
      .567734241486D-05  .370126217604D-04  .110305845737D-04  .544061015892D+04
      .264600000000D+06  .521540641785D-07  .277465330345D+00  .428408384323D-07
      .974037906531D+00  .107312500000D+03 -.481724193381D+00 -.517592988397D-08
     -.317870383435D-09  .513000000000D+03  .221200000000D+04  .000000000000D+00
      .312000000000D+01  .000000000000D+00  .232830643654D-09  .000000000000D+00
      .265264000000D+06  .000000000000D+00
E19 2022 06 01 01 30 00 -.550404225942D-02  .109920961222D-09  .000000000000D+00
      .570000000000D+02  .162500000000D+02  .352728978292D-08 -.265485829202D+01
      .815838575363D-06  .343315885402D-03  .612996518612D-05  .544061124992D+04
      .264600000000D+06 -.856816768646D-07 -.182032891585D+01  .372529029846D-08
      .961698621168D+00  .209906250000D+03 -.153543349772D+01 -.551915846653D-08
      .543594071446D-09  .513000000000D+03  .221200000000D+04  .000000000000D+00
      .360000000000D+01  .000000000000D+00 -.372529029846D-08 -.372529029846D-08
      .265264000000D+06  .000000000000D+00
E34 2022 06 01 01 30 00 -.519893656019D-03 -.197530880541D-11  .000000000000D+00
      .570000000000D+02 -.151375000000D+03  .263689555157D-08 -.769436546578D+00
     -.725500285625D-05  .338288373314D-03  .480562448502D-06  .544060946465D+04
      .264600000000D+06 -.260770320892D-07  .235829707944D+01  .204890966415D-07
      .997662155125D+00  .347687500000D+03  .174530617722D+01 -.563237746827D-08
     -.164649715464D-09  .513000000000D+03  .221200000000D+04  .000000000000D+00
      .312000000000D+01  .000000000000D+00  .465661287308D-08  .558793544769D-08
      .265465000000D+06  .000000000000D+00
S31 2022  6  1  1 45 36  .651925802231D-07  .181898940355D-11  .265511000000D+06
     -.191421758400D+05 -.201250000000D-03  .000000000000D+00  .000000000000D+00
     -.375704411200D+05  .687500000000D-04  .125000000000D-07  .200000000000D+01
      .428400000000D+00 -.188000000000D-03  .000000000000D+00  .000000000000D+00
S33 2022  6  1  1 45 36  .507570803165D-07  .909494701773D-12  .265511000000D+06
     -.266189144000D+05 -.237500000000D-03  .000000000000D+00  .000000000000D+00
     -.327018948800D+05  .650000000000D-04  .250000000000D-07  .200000000000D+01
      .113808000000D+02 -.196400000000D-02 -.625000000000D-07  .000000000000D+00
S31 2022  6  1  1 49 52  .656582415104D-07  .909494701773D-12  .265769000000D+06
     -.191422273600D+05 -.198750000000D-03  .000000000000D+00  .000000000000D+00
     -.375704231200D+05  .750000000000D-04  .125000000000D-07  .200000000000D+01
      .380400000000D+00 -.188000000000D-03  .000000000000D+00  .000000000000D+00
S33 2022  6  1  1 49 52  .507570803165D-07 -.909494701773D-12  .265769000000D+06
     -.266189752000D+05 -.237500000000D-03  .000000000000D+00  .000000000000D+00
     -.327018774400D+05  .718750000000D-04  .250000000000D-07  .200000000000D+01
      .108760000000D+02 -.198000000000D-02 -.625000000000D-07  .000000000000D+00
E09 2022 06 01 01 30 00 -.537830812391D-03 -.131308297568D-10  .000000000000D+00
      .570000000000D+02  .194375000000D+02  .355264798205D-08  .110302153421D+01
      .933185219765D-06  .410845968872D-03  .590085983276D-05  .544059936905D+04
      .264600000000D+06 -.186264514923D-08 -.182550720258D+01 -.726431608200D-07
      .961987354383D+00  .212406250000D+03 -.681996130665D+00 -.557094633799D-08
      .437161066656D-09  .513000000000D+03  .221200000000D+04  .000000000000D+00
      .312000000000D+01  .000000000000D+00  .186264514923D-08  .209547579288D-08
      .265774000000D+06  .000000000000D+00
R24 2022 06 01 01 45 00  .964906066656D-04  .181898940355D-11  .265830000000D+06
     -.902643505859D+04 -.130939483643D-02 -.465661287308D-08  .000000000000D+00
      .127651967773D+05 -.276126956940D+01  .000000000000D+00  .200000000000D+01
      .201684033203D+05  .174670314789D+01  .000000000000D+00  .000000000000D+00
E36 2022 06 01 01 40 00 -.381695281249D-03 -.544275735592D-11  .000000000000D+00
      .580000000000D+02 -.153656250000D+03  .258939357292D-08  .136525913815D+01
     -.715069472790D-05  .233584665693D-03  .730156898499D-06  .544061016655D+04
      .265200000000D+06 -.298023223877D-07  .236006017953D+01  .279396772385D-07
      .997796461245D+00  .336656250000D+03  .472034886102D+00 -.562309136718D-08
     -.146077513286D-09  .513000000000D+03  .221200000000D+04  .000000000000D+00
      .312000000000D+01  .000000000000D+00  .605359673500D-08  .698491930962D-08
      .265864000000D+06  .000000000000D+00
E09 2022 06 01 01 40 00 -.537838845048D-03 -.131450406116D-10  .000000000000D+00
      .580000000000D+02  .200312500000D+02  .355550524392D-08  .117719715403D+01
      .968575477600D-06  .410831766203D-03  .592321157455D-05  .544059954262D+04
      .265200000000D+06  .130385160446D-07 -.182551057607D+01 -.726431608200D-07
      .961987562118D+00  .212062500000D+03 -.681785483628D+00 -.557666086174D-08
      .445375694543D-09  .513000000000D+03  .221200000000D+04  .000000000000D+00
      .312000000000D+01  .000000000000D+00  .186264514923D-08  .209547579288D-08
      .265864000000D+06  .000000000000D+00
E21 2022 06 01 01 40 00 -.737509690225D-03 -.223110419029D-11  .000000000000D+00
      .580000000000D+02  .124718750000D+03  .245831668447D-08 -.112730447191D+01
      .587105751038D-05  .320090912282D-04  .114310532808D-04  .544061928940D+04
      .265200000000D+06 -.111758708954D-06  .274518728064D+00  .949949026108D-07
      .973621464956D+00  .100500000000D+03  .187540464650D+01 -.506235372450D-08
     -.346800159904D-09  .513000000000D+03  .221200000000D+04  .000000000000D+00
      .312000000000D+01  .000000000000D+00  .209547579288D-08  .232830643654D-08
      .265864000000D+06  .000000000000D+00
E01 2022 06 01 01 40 00 -.487462151796D-03 -.730437932361D-11  .000000000000D+00
      .580000000000D+02  .121000000000D+03  .257117852848D-08  .499242425257D+00
      .562146306038D-05  .369119225070D-04  .110547989607D-04  .544060974693D+04
      .265200000000D+06  .502914190292D-07  .277462226033D+00  .521540641785D-07
      .974037760240D+00  .106625000000D+03 -.486642837028D+00 -.516950104475D-08
     -.321084803042D-09  .513000000000D+03  .221200000000D+04  .000000000000D+00
      .312000000000D+01  .000000000000D+00  .232830643654D-09  .000000000000D+00
      .265864000000D+06  .000000000000D+00
